0 FENGYUN 1C DEB
1 29936U 99025JJ  13281.77761941  .00000129  00000-0  60636-4 0  9482
2 29936 098.7115 352.2628 0118725 359.1849 114.0932 14.32109247352220
0 FENGYUN 1C DEB
1 29936U 99025JJ  13282.82496779  .00000126  00000-0  59658-4 0  9493
2 29936 098.7115 353.3147 0118668 356.0904 113.8127 14.32110310352374
0 FENGYUN 1C DEB
1 29936U 99025JJ  13284.20494057  .00000176  00000-0  76904-4 0  9504
2 29936 098.7115 354.7007 0118592 352.0187 028.4126 14.32110888352571
0 FENGYUN 1C DEB
1 29936U 99025JJ  13285.47144918  .00000157  00000-0  70162-4 0  9512
2 29936 098.7114 355.9729 0118523 348.2789 078.0418 14.32111220352759
0 FENGYUN 1C DEB
1 29936U 99025JJ  13286.73760544  .00000205  00000-0  86809-4 0  9521
2 29936 098.7112 357.2447 0118456 344.5395 125.8564 14.32111598352937
0 FENGYUN 1C DEB
1 29936U 99025JJ  13287.85545569  .00000227  00000-0  94579-4 0  9531
2 29936 098.7110 358.3676 0118424 341.2242 129.0777 14.32112375353095
0 FENGYUN 1C DEB
1 29936U 99025JJ  13289.17731260  .00000242  00000-0  99582-4 0  9540
2 29936 098.7106 359.6954 0118397 337.3019 104.0872 14.32113475353282
0 FENGYUN 1C DEB
1 29936U 99025JJ  13290.29292069  .00000250  00000-0  10231-3 0  9557
2 29936 098.7103 000.8160 0118332 334.0189 095.7307 14.32114194353440
0 FENGYUN 1C DEB
1 29936U 99025JJ  13291.33898882  .00000250  00000-0  10235-3 0  9563
2 29936 098.7101 001.8666 0118280 330.9198 088.8766 14.32114817353597
0 FENGYUN 1C DEB
1 29936U 99025JJ  13293.15507359  .00000274  00000-0  11070-3 0  9576
2 29936 098.7098 003.6905 0118199 325.5554 091.9359 14.32115836353857
0 FENGYUN 1C DEB
1 29936U 99025JJ  13294.20302794  .00000254  00000-0  10395-3 0  9587
2 29936 098.7097 004.7429 0118146 322.4482 094.8145 14.32116740354005
0 FENGYUN 1C DEB
1 29936U 99025JJ  13295.46212046  .00000279  00000-0  11261-3 0  9597
2 29936 098.7098 006.0073 0118128 318.7112 106.2543 14.32117555354188
